{"fetched_at":"2026-03-29T16:36:15Z","count":15609,"tles":[{"name":"STARLINK-30443","line1":"1 57894U 23146D   26087.69398290  .00086306  00000+0  31329-2 0  9990","line2":"2 57894  42.9987 206.7955 0001829 255.0699 104.9950 15.27331282139964","category":"Starlink"}]}